STARLINK-36940          
1 68027U 26040N   26068.75002314 -.01068305  40873-3 -12928-2 0  9993
2 68027  97.2772  16.9610 0001103  76.7526 106.8259 16.08253014  2531
STARLINK-36253          
1 68028U 26040P   26068.75002314 -.02246605  13875-2 -62523-2 0  9993
2 68028  97.2785  16.8864 0001466  94.8037 281.0564 15.93899721  2535
STARLINK-36944          
1 68029U 26040Q   26068.75002314 -.01089922  41497-3 -14712-2 0  9999
2 68029  97.2771  16.9404 0001095  80.1489  55.9279 16.06504969  2431
STARLINK-36942          
1 68030U 26040R   26068.75002314 -.01078539  40753-3 -14463-2 0  9990
2 68030  97.2781  16.9419 0001080  84.9055  53.7980 16.06610278  2431
STARLINK-36913          
1 68031U 26040S   26068.75002314 -.01069287  40163-3 -14241-2 0  9990
2 68031  97.2778  16.9429 0001055  83.4732  57.8334 16.06719397  2437
STARLINK-36935          
1 68032U 26040T   26068.75002314 -.01046644  38993-3 -13258-2 0  9998
2 68032  97.2772  16.9500 0001133  95.3226  63.5823 16.07523346  2535
STARLINK-36947          
1 68033U 26040U   26068.75002314 -.01080140  40971-3 -14298-2 0  9992
2 68033  97.2778  16.9437 0001072  84.7360  58.6931 16.06820117  2433
STARLINK-36939          
1 68034U 26040V   26068.75002314 -.01073969  40763-3 -13830-2 0  9994
2 68034  97.2780  16.9478 0001106  92.7742  60.2861 16.07263056  2438
STARLINK-36943          
1 68035U 26040W   26068.75002314 -.01060513  40108-3 -13179-2 0  9995
2 68035  97.2776  16.9551 0001153  93.2000  76.0025 16.07830483  2487
STARLINK-36906          
1 68036U 26040X   26068.75002314 -.01054795  39372-3 -13676-2 0  9994
2 68036  97.2777  16.9468 0001070  87.1663  63.6999 16.07150293  2432
STARLINK-36388          
1 68037U 26040Y   26068.75002314 -.01064994  40205-3 -13595-2 0  9994
2 68037  97.2778  16.9492 0001095  91.4401  64.7756 16.07402339  2384
STARLINK-36895          
1 68038U 26040Z   26068.75002314 -.01071831  40506-3 -13985-2 0  9990
2 68038  97.2771  16.9455 0001111  90.9636  57.5059 16.07051106  2434
STARLINK-36373          
1 68039U 26040AA  26068.75002314 -.01070536  40349-3 -14083-2 0  9997
2 68039  97.2772  16.9447 0001097  81.3613  64.2752 16.06918972  2380
STARLINK-36711          
1 68040U 26041A   26068.75002314 -.01679373  78352-3 -50922-2 0  9991
2 68040  53.1595  61.9696 0000443  89.8925 352.8501 15.91522600  2385
STARLINK-36825          
1 68041U 26041B   26068.75002314 -.01653631  76362-3 -49427-2 0  9998
2 68041  53.1592  61.9584 0000434  91.9372 355.8423 15.91796165  2384
STARLINK-36925          
1 68042U 26041C   26068.75002314 -.01668376  77512-3 -50235-2 0  9998
2 68042  53.1593  61.9639 0000436  89.8190 355.5560 15.91656437  2389
