[{"OBJECT_NAME":"STARLINK-36940","OBJECT_ID":"2026-040N","EPOCH":"2026-03-09T18:00:01.999296","MEAN_MOTION":16.08253014,"ECCENTRICITY":0.0001103,"INCLINATION":97.2772,"RA_OF_ASC_NODE":16.961,"ARG_OF_PERICENTER":76.7526,"MEAN_ANOMALY":106.8259,"EPHEMERIS_TYPE":0,"CLASSIFICATION_TYPE":"U","NORAD_CAT_ID":68027,"ELEMENT_SET_NO":999,"REV_AT_EPOCH":253,"BSTAR":-0.0012928,"MEAN_MOTION_DOT":-0.01068305,"MEAN_MOTION_DDOT":0.00040873},{"OBJECT_NAME":"STARLINK-36253","OBJECT_ID":"2026-040P","EPOCH":"2026-03-09T18:00:01.999296","MEAN_MOTION":15.93899721,"ECCENTRICITY":0.0001466,"INCLINATION":97.2785,"RA_OF_ASC_NODE":16.8864,"ARG_OF_PERICENTER":94.8037,"MEAN_ANOMALY":281.0564,"EPHEMERIS_TYPE":0,"CLASSIFICATION_TYPE":"U","NORAD_CAT_ID":68028,"ELEMENT_SET_NO":999,"REV_AT_EPOCH":253,"BSTAR":-0.0062523,"MEAN_MOTION_DOT":-0.02246605,"MEAN_MOTION_DDOT":0.0013875},{"OBJECT_NAME":"STARLINK-36944","OBJECT_ID":"2026-040Q","EPOCH":"2026-03-09T18:00:01.999296","MEAN_MOTION":16.06504969,"ECCENTRICITY":0.0001095,"INCLINATION":97.2771,"RA_OF_ASC_NODE":16.9404,"ARG_OF_PERICENTER":80.1489,"MEAN_ANOMALY":55.9279,"EPHEMERIS_TYPE":0,"CLASSIFICATION_TYPE":"U","NORAD_CAT_ID":68029,"ELEMENT_SET_NO":999,"REV_AT_EPOCH":243,"BSTAR":-0.0014712,"MEAN_MOTION_DOT":-0.01089922,"MEAN_MOTION_DDOT":0.00041497},{"OBJECT_NAME":"STARLINK-36942","OBJECT_ID":"2026-040R","EPOCH":"2026-03-09T18:00:01.999296","MEAN_MOTION":16.06610278,"ECCENTRICITY":0.000108,"INCLINATION":97.2781,"RA_OF_ASC_NODE":16.9419,"ARG_OF_PERICENTER":84.9055,"MEAN_ANOMALY":53.798,"EPHEMERIS_TYPE":0,"CLASSIFICATION_TYPE":"U","NORAD_CAT_ID":68030,"ELEMENT_SET_NO":999,"REV_AT_EPOCH":243,"BSTAR":-0.0014463,"MEAN_MOTION_DOT":-0.01078539,"MEAN_MOTION_DDOT":0.00040753},{"OBJECT_NAME":"STARLINK-36913","OBJECT_ID":"2026-040S","EPOCH":"2026-03-09T18:00:01.999296","MEAN_MOTION":16.06719397,"ECCENTRICITY":0.0001055,"INCLINATION":97.2778,"RA_OF_ASC_NODE":16.9429,"ARG_OF_PERICENTER":83.4732,"MEAN_ANOMALY":57.8334,"EPHEMERIS_TYPE":0,"CLASSIFICATION_TYPE":"U","NORAD_CAT_ID":68031,"ELEMENT_SET_NO":999,"REV_AT_EPOCH":243,"BSTAR":-0.0014241,"MEAN_MOTION_DOT":-0.01069287,"MEAN_MOTION_DDOT":0.00040163},{"OBJECT_NAME":"STARLINK-36935","OBJECT_ID":"2026-040T","EPOCH":"2026-03-09T18:00:01.999296","MEAN_MOTION":16.07523346,"ECCENTRICITY":0.0001133,"INCLINATION":97.2772,"RA_OF_ASC_NODE":16.95,"ARG_OF_PERICENTER":95.3226,"MEAN_ANOMALY":63.5823,"EPHEMERIS_TYPE":0,"CLASSIFICATION_TYPE":"U","NORAD_CAT_ID":68032,"ELEMENT_SET_NO":999,"REV_AT_EPOCH":253,"BSTAR":-0.0013258,"MEAN_MOTION_DOT":-0.01046644,"MEAN_MOTION_DDOT":0.00038993},{"OBJECT_NAME":"STARLINK-36947","OBJECT_ID":"2026-040U","EPOCH":"2026-03-09T18:00:01.999296","MEAN_MOTION":16.06820117,"ECCENTRICITY":0.0001072,"INCLINATION":97.2778,"RA_OF_ASC_NODE":16.9437,"ARG_OF_PERICENTER":84.736,"MEAN_ANOMALY":58.6931,"EPHEMERIS_TYPE":0,"CLASSIFICATION_TYPE":"U","NORAD_CAT_ID":68033,"ELEMENT_SET_NO":999,"REV_AT_EPOCH":243,"BSTAR":-0.0014298,"MEAN_MOTION_DOT":-0.0108014,"MEAN_MOTION_DDOT":0.00040971},{"OBJECT_NAME":"STARLINK-36939","OBJECT_ID":"2026-040V","EPOCH":"2026-03-09T18:00:01.999296","MEAN_MOTION":16.07263056,"ECCENTRICITY":0.0001106,"INCLINATION":97.278,"RA_OF_ASC_NODE":16.9478,"ARG_OF_PERICENTER":92.7742,"MEAN_ANOMALY":60.2861,"EPHEMERIS_TYPE":0,"CLASSIFICATION_TYPE":"U","NORAD_CAT_ID":68034,"ELEMENT_SET_NO":999,"REV_AT_EPOCH":243,"BSTAR":-0.001383,"MEAN_MOTION_DOT":-0.01073969,"MEAN_MOTION_DDOT":0.00040763},{"OBJECT_NAME":"STARLINK-36943","OBJECT_ID":"2026-040W","EPOCH":"2026-03-09T18:00:01.999296","MEAN_MOTION":16.07830483,"ECCENTRICITY":0.0001153,"INCLINATION":97.2776,"RA_OF_ASC_NODE":16.9551,"ARG_OF_PERICENTER":93.2,"MEAN_ANOMALY":76.0025,"EPHEMERIS_TYPE":0,"CLASSIFICATION_TYPE":"U","NORAD_CAT_ID":68035,"ELEMENT_SET_NO":999,"REV_AT_EPOCH":248,"BSTAR":-0.0013179,"MEAN_MOTION_DOT":-0.01060513,"MEAN_MOTION_DDOT":0.00040108},{"OBJECT_NAME":"STARLINK-36906","OBJECT_ID":"2026-040X","EPOCH":"2026-03-09T18:00:01.999296","MEAN_MOTION":16.07150293,"ECCENTRICITY":0.000107,"INCLINATION":97.2777,"RA_OF_ASC_NODE":16.9468,"ARG_OF_PERICENTER":87.1663,"MEAN_ANOMALY":63.6999,"EPHEMERIS_TYPE":0,"CLASSIFICATION_TYPE":"U","NORAD_CAT_ID":68036,"ELEMENT_SET_NO":999,"REV_AT_EPOCH":243,"BSTAR":-0.0013676,"MEAN_MOTION_DOT":-0.01054795,"MEAN_MOTION_DDOT":0.00039372},{"OBJECT_NAME":"STARLINK-36388","OBJECT_ID":"2026-040Y","EPOCH":"2026-03-09T18:00:01.999296","MEAN_MOTION":16.07402339,"ECCENTRICITY":0.0001095,"INCLINATION":97.2778,"RA_OF_ASC_NODE":16.9492,"ARG_OF_PERICENTER":91.4401,"MEAN_ANOMALY":64.7756,"EPHEMERIS_TYPE":0,"CLASSIFICATION_TYPE":"U","NORAD_CAT_ID":68037,"ELEMENT_SET_NO":999,"REV_AT_EPOCH":238,"BSTAR":-0.0013595,"MEAN_MOTION_DOT":-0.01064994,"MEAN_MOTION_DDOT":0.00040205},{"OBJECT_NAME":"STARLINK-36895","OBJECT_ID":"2026-040Z","EPOCH":"2026-03-09T18:00:01.999296","MEAN_MOTION":16.07051106,"ECCENTRICITY":0.0001111,"INCLINATION":97.2771,"RA_OF_ASC_NODE":16.9455,"ARG_OF_PERICENTER":90.9636,"MEAN_ANOMALY":57.5059,"EPHEMERIS_TYPE":0,"CLASSIFICATION_TYPE":"U","NORAD_CAT_ID":68038,"ELEMENT_SET_NO":999,"REV_AT_EPOCH":243,"BSTAR":-0.0013985,"MEAN_MOTION_DOT":-0.01071831,"MEAN_MOTION_DDOT":0.00040506},{"OBJECT_NAME":"STARLINK-36373","OBJECT_ID":"2026-040AA","EPOCH":"2026-03-09T18:00:01.999296","MEAN_MOTION":16.06918972,"ECCENTRICITY":0.0001097,"INCLINATION":97.2772,"RA_OF_ASC_NODE":16.9447,"ARG_OF_PERICENTER":81.3613,"MEAN_ANOMALY":64.2752,"EPHEMERIS_TYPE":0,"CLASSIFICATION_TYPE":"U","NORAD_CAT_ID":68039,"ELEMENT_SET_NO":999,"REV_AT_EPOCH":238,"BSTAR":-0.0014083,"MEAN_MOTION_DOT":-0.01070536,"MEAN_MOTION_DDOT":0.00040349},{"OBJECT_NAME":"STARLINK-36711","OBJECT_ID":"2026-041A","EPOCH":"2026-03-09T18:00:01.999296","MEAN_MOTION":15.915226,"ECCENTRICITY":4.43e-5,"INCLINATION":53.1595,"RA_OF_ASC_NODE":61.9696,"ARG_OF_PERICENTER":89.8925,"MEAN_ANOMALY":352.8501,"EPHEMERIS_TYPE":0,"CLASSIFICATION_TYPE":"U","NORAD_CAT_ID":68040,"ELEMENT_SET_NO":999,"REV_AT_EPOCH":238,"BSTAR":-0.0050922,"MEAN_MOTION_DOT":-0.01679373,"MEAN_MOTION_DDOT":0.00078352},{"OBJECT_NAME":"STARLINK-36825","OBJECT_ID":"2026-041B","EPOCH":"2026-03-09T18:00:01.999296","MEAN_MOTION":15.91796165,"ECCENTRICITY":4.34e-5,"INCLINATION":53.1592,"RA_OF_ASC_NODE":61.9584,"ARG_OF_PERICENTER":91.9372,"MEAN_ANOMALY":355.8423,"EPHEMERIS_TYPE":0,"CLASSIFICATION_TYPE":"U","NORAD_CAT_ID":68041,"ELEMENT_SET_NO":999,"REV_AT_EPOCH":238,"BSTAR":-0.0049427,"MEAN_MOTION_DOT":-0.01653631,"MEAN_MOTION_DDOT":0.00076362},{"OBJECT_NAME":"STARLINK-36925","OBJECT_ID":"2026-041C","EPOCH":"2026-03-09T18:00:01.999296","MEAN_MOTION":15.91656437,"ECCENTRICITY":4.36e-5,"INCLINATION":53.1593,"RA_OF_ASC_NODE":61.9639,"ARG_OF_PERICENTER":89.819,"MEAN_ANOMALY":355.556,"EPHEMERIS_TYPE":0,"CLASSIFICATION_TYPE":"U","NORAD_CAT_ID":68042,"ELEMENT_SET_NO":999,"REV_AT_EPOCH":238,"BSTAR":-0.0050235,"MEAN_MOTION_DOT":-0.01668376,"MEAN_MOTION_DDOT":0.00077512}]
